[{"OBJECT_NAME":"IRIDIUM 140","OBJECT_ID":"2018-030D","EPOCH":"2026-03-09T17:10:03.364608","MEAN_MOTION":14.34217721,"ECCENTRICITY":0.00019229,"INCLINATION":86.4003,"RA_OF_ASC_NODE":332.0359,"ARG_OF_PERICENTER":85.7585,"MEAN_ANOMALY":274.3831,"EPHEMERIS_TYPE":0,"CLASSIFICATION_TYPE":"U","NORAD_CAT_ID":43252,"ELEMENT_SET_NO":999,"REV_AT_EPOCH":41593,"BSTAR":-8.82061e-7,"MEAN_MOTION_DOT":1.7e-7,"MEAN_MOTION_DDOT":0},{"OBJECT_NAME":"ARIANE 40 R\/B","OBJECT_ID":"1993-061H","EPOCH":"2026-03-09T18:26:30.161760","MEAN_MOTION":14.32860991,"ECCENTRICITY":0.0009538,"INCLINATION":98.4915,"RA_OF_ASC_NODE":137.6545,"ARG_OF_PERICENTER":284.8597,"MEAN_ANOMALY":75.1531,"EPHEMERIS_TYPE":0,"CLASSIFICATION_TYPE":"U","NORAD_CAT_ID":22830,"ELEMENT_SET_NO":999,"REV_AT_EPOCH":69411,"BSTAR":0.00010373604,"MEAN_MOTION_DOT":2.4e-6,"MEAN_MOTION_DDOT":0}]
